[{"OBJECT_NAME":"STARLINK-36533","OBJECT_ID":"2026-020AC","EPOCH":"2026-03-09T16:00:06.953760","MEAN_MOTION":15.67305458,"ECCENTRICITY":0.0003498,"INCLINATION":42.9984,"RA_OF_ASC_NODE":142.2096,"ARG_OF_PERICENTER":341.2459,"MEAN_ANOMALY":18.8278,"EPHEMERIS_TYPE":0,"CLASSIFICATION_TYPE":"U","NORAD_CAT_ID":67643,"ELEMENT_SET_NO":999,"REV_AT_EPOCH":608,"BSTAR":-0.0046634327,"MEAN_MOTION_DOT":-0.00488163,"MEAN_MOTION_DDOT":0},{"OBJECT_NAME":"ELECTRON KICK STAGE R\/B","OBJECT_ID":"2026-015D","EPOCH":"2026-03-09T15:02:18.646944","MEAN_MOTION":14.71860187,"ECCENTRICITY":0.0516686,"INCLINATION":89.0447,"RA_OF_ASC_NODE":277.927,"ARG_OF_PERICENTER":172.5816,"MEAN_ANOMALY":188.3451,"EPHEMERIS_TYPE":0,"CLASSIFICATION_TYPE":"U","NORAD_CAT_ID":67559,"ELEMENT_SET_NO":999,"REV_AT_EPOCH":678,"BSTAR":0.0016475,"MEAN_MOTION_DOT":0.00103651,"MEAN_MOTION_DDOT":8.2583e-7}]
